{
    "links": {
        "self": "http://www.neowsapp.com/rest/v1/neo/3797703?api_key=iIulBulltgU6a56xZRHN4H3l9WmuAYTsLGpBGhQ2"
    },
    "id": "3797703",
    "neo_reference_id": "3797703",
    "name": "(2018 AF13)",
    "designation": "2018 AF13",
    "nasa_jpl_url": "http://ssd.jpl.nasa.gov/sbdb.cgi?sstr=3797703",
    "absolute_magnitude_h": 21.5,
    "estimated_diameter": {
        "kilometers": {
            "estimated_diameter_min": 0.1332155667,
            "estimated_diameter_max": 0.2978790628
        },
        "meters": {
            "estimated_diameter_min": 133.2155666981,
            "estimated_diameter_max": 297.8790627982
        },
        "miles": {
            "estimated_diameter_min": 0.0827762899,
            "estimated_diameter_max": 0.1850934111
        },
        "feet": {
            "estimated_diameter_min": 437.0589598459,
            "estimated_diameter_max": 977.2935443908
        }
    },
    "is_potentially_hazardous_asteroid": false,
    "close_approach_data": [
        {
            "close_approach_date": "1987-01-09",
            "close_approach_date_full": "1987-Jan-09 23:33",
            "epoch_date_close_approach": 537233580000,
            "relative_velocity": {
                "kilometers_per_second": "12.5374506244",
                "kilometers_per_hour": "45134.8222477205",
                "miles_per_hour": "28045.0233016461"
            },
            "miss_distance": {
                "astronomical": "0.3837708279",
                "lunar": "149.2868520531",
                "kilometers": "57411298.421976573",
                "miles": "35673726.6267317874"
            },
            "orbiting_body": "Earth"
        },
        {
            "close_approach_date": "2005-01-10",
            "close_approach_date_full": "2005-Jan-10 08:51",
            "epoch_date_close_approach": 1105347060000,
            "relative_velocity": {
                "kilometers_per_second": "18.2067023451",
                "kilometers_per_hour": "65544.1284425256",
                "miles_per_hour": "40726.5724758571"
            },
            "miss_distance": {
                "astronomical": "0.3373004918",
                "lunar": "131.2098913102",
                "kilometers": "50459435.123232466",
                "miles": "31354039.0794653908"
            },
            "orbiting_body": "Earth"
        },
        {
            "close_approach_date": "2018-01-09",
            "close_approach_date_full": "2018-Jan-09 12:51",
            "epoch_date_close_approach": 1515502260000,
            "relative_velocity": {
                "kilometers_per_second": "12.5755032344",
                "kilometers_per_hour": "45271.8116437356",
                "miles_per_hour": "28130.1431849645"
            },
            "miss_distance": {
                "astronomical": "0.3756657756",
                "lunar": "146.1339867084",
                "kilometers": "56198799.861657972",
                "miles": "34920314.9575131336"
            },
            "orbiting_body": "Earth"
        },
        {
            "close_approach_date": "2036-01-11",
            "close_approach_date_full": "2036-Jan-11 11:52",
            "epoch_date_close_approach": 2083665120000,
            "relative_velocity": {
                "kilometers_per_second": "18.468737673",
                "kilometers_per_hour": "66487.4556226866",
                "miles_per_hour": "41312.7193006632"
            },
            "miss_distance": {
                "astronomical": "0.3453524316",
                "lunar": "134.3420958924",
                "kilometers": "51663988.166680692",
                "miles": "32102513.6334378696"
            },
            "orbiting_body": "Earth"
        },
        {
            "close_approach_date": "2049-01-08",
            "close_approach_date_full": "2049-Jan-08 20:42",
            "epoch_date_close_approach": 2493751320000,
            "relative_velocity": {
                "kilometers_per_second": "12.6500073213",
                "kilometers_per_hour": "45540.0263565565",
                "miles_per_hour": "28296.8013769392"
            },
            "miss_distance": {
                "astronomical": "0.3627988335",
                "lunar": "141.1287462315",
                "kilometers": "54273932.730084645",
                "miles": "33724257.983852301"
            },
            "orbiting_body": "Earth"
        }
    ],
    "orbital_data": {
        "orbit_id": "6",
        "orbit_determination_date": "2020-01-28 14:09:32",
        "first_observation_date": "2018-01-14",
        "last_observation_date": "2018-02-06",
        "data_arc_in_days": 23,
        "observations_used": 42,
        "orbit_uncertainty": "6",
        "minimum_orbit_intersection": ".248054",
        "jupiter_tisserand_invariant": "3.751",
        "epoch_osculation": "2459000.5",
        "eccentricity": ".4342925184979515",
        "semi_major_axis": "1.882615304179393",
        "inclination": "24.40386219919568",
        "ascending_node_longitude": "304.1023813516871",
        "orbital_period": "943.4976094537149",
        "perihelion_distance": "1.065009562364537",
        "perihelion_argument": "112.9057801263387",
        "aphelion_distance": "2.700221045994249",
        "perihelion_time": "2459004.882914091460",
        "mean_anomaly": "358.3276597024563",
        "mean_motion": ".3815589953730143",
        "equinox": "J2000",
        "orbit_class": {
            "orbit_class_type": "AMO",
            "orbit_class_description": "Near-Earth asteroid orbits similar to that of 1221 Amor",
            "orbit_class_range": "1.017 AU < q (perihelion) < 1.3 AU"
        }
    },
    "is_sentry_object": false
}